#dP2023  3 19  0  0  0.00000000      96 __u+U IGS14 FIT  IAC
## 2254      0.00000000   900.00000000 60022 0.0000000000000
+  120   C06C07C08C09C10C11C12C13C14C16C19C20C21C22C23C24C25
+        C26C27C28C29C30C32C33C34C35C36C37C38C39C40C41C42C43
+        C44C45C46E01E02E03E04E05E07E08E09E10E11E12E13E14E15
+        E18E19E21E24E25E26E27E30E31E33E34E36G01G02G03G04G05
+        G06G07G08G09G10G11G12G13G14G15G16G17G18G19G20G21G22
+        G23G24G25G26G27G28G29G30G31G32J02J03J04R01R02R03R04
+        R05R07R08R09R11R12R13R14R15R16R17R18R19R20R21R22R24
+        R25  0  0  0  0  0  0  0  0  0  0  0  0  0  0  0  0
++         8  7  7  8  7  7  7  7  6  8  6  6  6  6  6  5  5
++         6  6  6  6  6  6  6  6  6  6  6  6  6  6  6  6  6
++         6  6  6  4  4  4  4  4  5  5  4  4  4  4  4  4  4
++         4  4  4  4  4  4  4  4  4  4  4  5  4  3  3  3  3
++         3  4  4  3  4  3  3  4  4  4  3  4  3  3  3  4  4
++         4  4  3  3  3  3  3  4  3  3  9  9  9  8  7  7  7
++         7  7  7  7  7  7  8  6  7  7  6  7  8  8  7  7  6
++         8  0  0  0  0  0  0  0  0  0  0  0  0  0  0  0  0
%c M  cc GPS ccc cccc cccc cccc cccc ccccc ccccc ccccc ccccc
%c cc cc ccc ccc cccc cccc cccc cccc ccccc ccccc ccccc ccccc
%f  1.2500000  1.025000000  0.00000000000  0.000000000000000
%f  0.0000000  0.000000000  0.00000000000  0.000000000000000
%i    0    0    0    0      0      0      0      0         0
%i    0    0    0    0      0      0      0      0         0
/* INFORMATION & ANALYSIS CENTER (IAC)            FINAL DATA
/* S/V CLOCKS ARE ALIGNED TO GNSS TIME                      
/* G:C1WC2W R:C1PC2P E:C1XC5X C:C2IC6I J:C1CC2S             
/* PCV:IGS20_2247 OL/AL:FES2004  NONE     YN ORB:CoN CLK:CoN
*  2023 03 19 15 30  0.00000000
PC06 -17493.624018  37384.150094  -9267.642759   -196.446896
PC07  -3747.979291  33501.691874 -25185.141602    -43.608087
PC08 -11515.205795  19539.076414  35518.699196    516.988773
PC09 -11825.822691  36571.772958 -17544.321935    864.059850
PC10   3312.768848  36364.734175 -20357.908184    -12.834630
PC11  17662.147852 -17153.590965  13214.375613    714.685099
PC12  15959.978309   1450.683462  22881.306799    516.424861
PC13  -4075.774833  21974.634055  35900.078865    233.132355
PC14  13730.881261  -7919.060664 -22941.319169     12.363041
PC16 -19289.957637  37019.952522  -6734.812126    134.184921
PC19  -6314.898236  16317.583053  21765.447545   -896.487957
PC20 -18187.699881   -172.017592  21192.103422    671.443748
PC21  19950.121103  17892.369054  -7718.491314   -908.788374
PC22   9773.328755  24229.546770   9773.569099   -578.243585
PC23  -2294.296165 -16160.075746  22631.936028   -890.617366
PC24  27748.497975  -3084.036197   -241.991583   -275.877154
PC25  16936.784684 -14557.030301  16733.176791     90.470228
PC26  22074.776264   7893.376911 -15181.156256    -94.101913
PC27 -12407.318237 -10728.025953 -22595.730960    112.867939
PC28     32.759304 -24120.411115 -14029.639583     82.743879
PC29 -12851.141049  24418.225888  -4198.221297     95.594493
PC30 -18060.993114   9063.472229 -19265.898961      0.795657
PC32 -20112.578030 -17766.212149   7702.084988   -596.340187
PC33   6262.900133 -16327.630361 -21740.106027   -871.038811
PC34  18102.522166 -10321.451608  18535.492280    129.984814
PC35     73.084368  24620.560025  13167.355963    661.673619
PC36 -17891.116012  13904.141694 -16267.520033   -554.784546
PC37 -20834.788557  -9188.821718  16122.662670   -800.565756
PC38 -20514.464617  19927.079616  30970.061435     66.019902
PC39 -21036.604909  36682.071437   -112.436895     -2.236045
PC40  -6730.856662  29750.127521 -29020.156148    -17.983323
PC41  -9429.413227 -24162.852444 -10246.115201   -742.868177
PC42  18739.103280   1438.790154 -20570.681926   -779.370345
PC43  13334.507407 -23991.969978   4941.709025     12.511591
PC44  12777.060346  10568.677143  22436.123555     49.174239
PC45   2806.469171  15975.411512 -22714.544689    -74.170866
PC46 -27531.553030   4195.963988  -1416.412745    -40.958802
PE01 -20213.223895 -18213.002393  11639.661207    -14.467456
PE02  20578.903400  18084.347959 -11245.271097     27.258571
PE03  12002.741064  23201.645100 -13910.661257   -660.712444
PE04 -17165.263261  -3946.122337  23800.999223    -81.818006
PE05   -361.610114  29267.580138   4421.313351    -84.971617
PE07  12394.672005 -17988.016661 -19967.634738    -31.056070
PE08  17022.446084   4160.532189 -23849.686973    -53.618247
PE09 -12344.401626  17804.551616  20170.563342   -874.464871
PE10 -25779.497087  11896.078210  -8385.512201   -520.215438
PE11 -23216.936814  18255.873845   2135.942818   1302.534093
PE12 -24220.976366   4139.960301 -16525.016962   -464.419760
PE13  23538.739619 -17886.914379  -1299.846944    -17.839160
PE14 -12610.749623  19178.222244 -14660.238188    172.802502
PE15  24031.157815  -3906.164743  16831.702329     -8.536847
PE18   2632.053728 -30175.012646   1895.750784   -265.275279
PE19 -10503.219787 -25035.496122  11800.175041  -2971.163075
PE21  -2638.368598 -18536.168160  22916.513791   -518.412311
PE24 -18580.086645   7822.133659 -21685.457944  -1173.814778
PE25   2285.784742  18458.964348 -23030.167778   -601.626199
PE26   8448.070606 -21158.449675 -18889.103772     50.064886
PE27  17899.373182  -8381.956487  22033.839742   -538.608187
PE30  27708.126138   7156.039213   7585.427904    -23.474575
PE31 -27666.471569  -6591.322145  -8189.320625   -518.972299
PE33 -10352.438913 -12249.864507 -24874.814151   -448.760671
PE34  10510.817288  12131.721468  24865.511073    -35.718493
PE36  -9278.237059  21223.973810  18441.274866    -28.537500
PG01   7652.783213 -18326.969571 -17774.301667    201.245532
PG02  -3115.820060  18859.258404  19162.282298   -613.158146
PG03  -3123.289610 -17074.401819 -20261.470172   -346.949647
PG04    344.730310 -26487.409683   -697.465790     -3.455599
PG05 -13617.696846   9410.007165  20627.457199   -120.077904
PG06 -22137.287499   2548.469777 -14462.339705    582.371196
PG07  -7366.958610 -13817.679339  21880.100371    219.859970
PG08   7263.007993 -22082.319163  12411.450157   -113.685914
PG09  -8080.200858 -23443.446978   9381.971449   -197.514728
PG10  24167.554136  11248.083653  -1804.374646    -29.207725
PG11 -23614.790360  12009.689394  -1614.855859   -135.157790
PG12   -367.382313  16768.075727 -20898.182025   -353.441359
PG13 -12908.260274  16079.860727  16453.503303    492.896812
PG14 -22981.191245 -13455.318922    502.854427      0.343160
PG15  -4451.039338  23193.621521  11429.929060     22.959304
PG16  16842.430694  -5341.557403  19663.790097   -514.477835
PG17 -12685.786332 -12669.181726 -19132.780580    706.302530
PG18  10617.065362  10885.743839  21790.337032   -186.502397
PG19 -14912.258996  -2066.815141 -22115.850484    292.147251
PG20 -21650.175802   4052.340241  14732.599130    444.065451
PG21  14445.014807 -19309.175891  -9542.893383    154.335249
PG22  14982.939704  -2148.922036 -21370.667414    448.223099
PG23  18856.331984  16315.266001   9363.418132     11.509513
PG24 -10030.222718  20394.430779 -13746.079893   -118.024126
PG25  10984.413310  18457.927028 -16113.676136    428.941925
PG26  24475.849624   2523.548003  10311.559183    241.980707
PG27  12777.840203 -12375.372809  19341.545848     77.628750
PG28  21333.953408  -1231.313571 -15798.362428     47.032578
PG29   3462.268112  25461.566926   6497.511198   -591.575132
PG30 -18471.879627  -4758.843071  18685.201880   -526.250666
PG31  23827.369265  -4969.609219 -11329.260821   -211.976734
PG32  14536.164525   9289.547850 -20077.095093   -427.906790
PJ02 -26961.131950  15555.990173 -23871.688844     -1.231382
PJ03 -27249.548155  31718.588837   -897.073401      1.139521
PJ04 -26133.121418  26414.847759  25958.283536     94.155773
PR01 -13401.195330  -3429.283677  21442.072356     25.063087
PR02  -3784.169588  14500.278512  20710.174078    -23.111048
PR03   7435.419805  23220.254833   7646.557995     74.467383
PR04  14111.796149  19051.397932  -9393.457226    180.005309
PR05  13221.726394   4563.256498 -21320.080890    109.577600
PR07  -7906.865144 -23259.317785  -6730.162052     52.068488
PR08 -14333.962596 -18751.227822   9701.590233    -69.958114
PR09  14966.508630  -8704.408185  18713.216928    110.020073
PR11 -19395.612446  -7887.399949  14585.000286    -20.991484
PR12 -25221.822181    318.477146  -3715.415844     25.783818
PR13 -16685.648968   7726.670140 -17697.080171    -33.108591
PR14   3466.651724  11194.395358 -22649.421160     24.457005
PR15  20136.378191   7749.074774 -13592.332663     90.377356
PR16  25261.539502   -349.181932   3407.546997     12.553049
PR17  -5325.886110  19988.734887  14911.045305    613.845833
PR18   6498.141554   8810.035511  23058.252518     72.249909
PR19  14886.372268  -5305.914123  20020.099446   -225.874725
PR20  15957.218330 -19678.799741   2736.736499    -89.625649
PR21   4322.305398 -19222.119654 -16213.122899   -381.519212
PR22  -7171.076367  -8445.921250 -22949.241947     75.579065
PR24 -15144.190228  20420.656476  -2026.562042    154.999214
PR25   6313.309371 -19950.520100 -14592.886344     58.210815
EOF
